[{"OBJECT_NAME":"DUPLEX","OBJECT_ID":"1998-067XS","EPOCH":"2026-03-31T08:17:26.189664","MEAN_MOTION":15.5767408,"ECCENTRICITY":0.00030317,"INCLINATION":51.6297,"RA_OF_ASC_NODE":321.0191,"ARG_OF_PERICENTER":212.0904,"MEAN_ANOMALY":147.9904,"EPHEMERIS_TYPE":0,"CLASSIFICATION_TYPE":"U","NORAD_CAT_ID":66906,"ELEMENT_SET_NO":999,"REV_AT_EPOCH":1850,"BSTAR":0.00041041416,"MEAN_MOTION_DOT":0.00030598,"MEAN_MOTION_DDOT":0},{"OBJECT_NAME":"ISS OBJECT XT","OBJECT_ID":"1998-067XT","EPOCH":"2026-03-30T23:48:34.422912","MEAN_MOTION":15.77474142,"ECCENTRICITY":0.0006496,"INCLINATION":51.6233,"RA_OF_ASC_NODE":316.3688,"ARG_OF_PERICENTER":218.8764,"MEAN_ANOMALY":141.177,"EPHEMERIS_TYPE":0,"CLASSIFICATION_TYPE":"U","NORAD_CAT_ID":66907,"ELEMENT_SET_NO":999,"REV_AT_EPOCH":1853,"BSTAR":0.0015250225,"MEAN_MOTION_DOT":0.0026625,"MEAN_MOTION_DDOT":0},{"OBJECT_NAME":"ISS OBJECT XU","OBJECT_ID":"1998-067XU","EPOCH":"2026-03-31T20:59:19.272768","MEAN_MOTION":15.78203019,"ECCENTRICITY":0.0006865,"INCLINATION":51.6233,"RA_OF_ASC_NODE":311.7557,"ARG_OF_PERICENTER":224.5845,"MEAN_ANOMALY":135.4604,"EPHEMERIS_TYPE":0,"CLASSIFICATION_TYPE":"U","NORAD_CAT_ID":66908,"ELEMENT_SET_NO":999,"REV_AT_EPOCH":1867,"BSTAR":0.0014413,"MEAN_MOTION_DOT":0.00259788,"MEAN_MOTION_DDOT":0},{"OBJECT_NAME":"SILVERSAT","OBJECT_ID":"1998-067XV","EPOCH":"2026-03-30T23:56:13.358112","MEAN_MOTION":15.83552073,"ECCENTRICITY":0.00076656,"INCLINATION":51.62,"RA_OF_ASC_NODE":314.8852,"ARG_OF_PERICENTER":225.3563,"MEAN_ANOMALY":134.6816,"EPHEMERIS_TYPE":0,"CLASSIFICATION_TYPE":"U","NORAD_CAT_ID":66909,"ELEMENT_SET_NO":999,"REV_AT_EPOCH":1855,"BSTAR":0.0017359302,"MEAN_MOTION_DOT":0.00407567,"MEAN_MOTION_DDOT":0},{"OBJECT_NAME":"ISS OBJECT XW","OBJECT_ID":"1998-067XW","EPOCH":"2026-03-31T21:20:08.183904","MEAN_MOTION":15.76237796,"ECCENTRICITY":0.0006882,"INCLINATION":51.6213,"RA_OF_ASC_NODE":311.8494,"ARG_OF_PERICENTER":221.1915,"MEAN_ANOMALY":138.8566,"EPHEMERIS_TYPE":0,"CLASSIFICATION_TYPE":"U","NORAD_CAT_ID":66910,"ELEMENT_SET_NO":999,"REV_AT_EPOCH":1867,"BSTAR":0.0012591,"MEAN_MOTION_DOT":0.00206554,"MEAN_MOTION_DDOT":0},{"OBJECT_NAME":"ISS OBJECT XX","OBJECT_ID":"1998-067XX","EPOCH":"2026-03-31T20:54:36.817344","MEAN_MOTION":15.92173368,"ECCENTRICITY":0.0009955,"INCLINATION":51.6169,"RA_OF_ASC_NODE":308.6766,"ARG_OF_PERICENTER":236.6927,"MEAN_ANOMALY":123.3127,"EPHEMERIS_TYPE":0,"CLASSIFICATION_TYPE":"U","NORAD_CAT_ID":66911,"ELEMENT_SET_NO":999,"REV_AT_EPOCH":1870,"BSTAR":0.0017627,"MEAN_MOTION_DOT":0.0060442,"MEAN_MOTION_DDOT":0.00015627},{"OBJECT_NAME":"ISS OBJECT XY","OBJECT_ID":"1998-067XY","EPOCH":"2026-03-31T15:54:28.777248","MEAN_MOTION":15.68327986,"ECCENTRICITY":0.0004573,"INCLINATION":51.626,"RA_OF_ASC_NODE":315.6247,"ARG_OF_PERICENTER":218.0977,"MEAN_ANOMALY":141.9696,"EPHEMERIS_TYPE":0,"CLASSIFICATION_TYPE":"U","NORAD_CAT_ID":66912,"ELEMENT_SET_NO":999,"REV_AT_EPOCH":1859,"BSTAR":0.001054,"MEAN_MOTION_DOT":0.00122078,"MEAN_MOTION_DDOT":0},{"OBJECT_NAME":"KNACKSAT-2","OBJECT_ID":"1998-067XZ","EPOCH":"2026-03-31T16:10:54.220224","MEAN_MOTION":15.53694167,"ECCENTRICITY":0.0010228,"INCLINATION":51.6317,"RA_OF_ASC_NODE":322.4656,"ARG_OF_PERICENTER":266.1257,"MEAN_ANOMALY":93.8564,"EPHEMERIS_TYPE":0,"CLASSIFICATION_TYPE":"U","NORAD_CAT_ID":67683,"ELEMENT_SET_NO":999,"REV_AT_EPOCH":820,"BSTAR":0.00069855,"MEAN_MOTION_DOT":0.00045389,"MEAN_MOTION_DDOT":0},{"OBJECT_NAME":"CORAL","OBJECT_ID":"1998-067YA","EPOCH":"2026-03-31T15:54:15.621984","MEAN_MOTION":15.58165939,"ECCENTRICITY":0.0013085,"INCLINATION":51.6295,"RA_OF_ASC_NODE":321.6392,"ARG_OF_PERICENTER":255.9556,"MEAN_ANOMALY":103.9982,"EPHEMERIS_TYPE":0,"CLASSIFICATION_TYPE":"U","NORAD_CAT_ID":67684,"ELEMENT_SET_NO":999,"REV_AT_EPOCH":821,"BSTAR":0.0012626,"MEAN_MOTION_DOT":0.0009812,"MEAN_MOTION_DDOT":0},{"OBJECT_NAME":"GXIBA-1","OBJECT_ID":"1998-067YB","EPOCH":"2026-03-31T08:12:05.482368","MEAN_MOTION":15.5423451,"ECCENTRICITY":0.00121387,"INCLINATION":51.6317,"RA_OF_ASC_NODE":323.9961,"ARG_OF_PERICENTER":261.6169,"MEAN_ANOMALY":98.3445,"EPHEMERIS_TYPE":0,"CLASSIFICATION_TYPE":"U","NORAD_CAT_ID":67685,"ELEMENT_SET_NO":999,"REV_AT_EPOCH":815,"BSTAR":0.00074560945,"MEAN_MOTION_DOT":0.00049521,"MEAN_MOTION_DDOT":0},{"OBJECT_NAME":"UITMSAT-2","OBJECT_ID":"1998-067YC","EPOCH":"2026-03-31T21:41:30.417792","MEAN_MOTION":15.5532174,"ECCENTRICITY":0.0009315,"INCLINATION":51.6313,"RA_OF_ASC_NODE":321.0012,"ARG_OF_PERICENTER":236.8226,"MEAN_ANOMALY":123.1872,"EPHEMERIS_TYPE":0,"CLASSIFICATION_TYPE":"U","NORAD_CAT_ID":67686,"ELEMENT_SET_NO":999,"REV_AT_EPOCH":824,"BSTAR":0.0009214,"MEAN_MOTION_DOT":0.00063854,"MEAN_MOTION_DDOT":0},{"OBJECT_NAME":"HMU-SAT2","OBJECT_ID":"1998-067YD","EPOCH":"2026-03-31T16:02:48.006816","MEAN_MOTION":15.54008346,"ECCENTRICITY":0.000874,"INCLINATION":51.6312,"RA_OF_ASC_NODE":322.4319,"ARG_OF_PERICENTER":238.7051,"MEAN_ANOMALY":121.3084,"EPHEMERIS_TYPE":0,"CLASSIFICATION_TYPE":"U","NORAD_CAT_ID":67687,"ELEMENT_SET_NO":999,"REV_AT_EPOCH":812,"BSTAR":0.00077128,"MEAN_MOTION_DOT":0.00050751,"MEAN_MOTION_DDOT":0},{"OBJECT_NAME":"LEOPARD","OBJECT_ID":"1998-067YE","EPOCH":"2026-03-31T15:42:10.781280","MEAN_MOTION":15.54824398,"ECCENTRICITY":0.0008949,"INCLINATION":51.6312,"RA_OF_ASC_NODE":322.3359,"ARG_OF_PERICENTER":236.2824,"MEAN_ANOMALY":123.7315,"EPHEMERIS_TYPE":0,"CLASSIFICATION_TYPE":"U","NORAD_CAT_ID":67688,"ELEMENT_SET_NO":999,"REV_AT_EPOCH":812,"BSTAR":0.00086636,"MEAN_MOTION_DOT":0.00058871,"MEAN_MOTION_DDOT":0},{"OBJECT_NAME":"CREW DRAGON 12","OBJECT_ID":"2026-031A","EPOCH":"2026-03-31T20:13:47.748864","MEAN_MOTION":15.48686199,"ECCENTRICITY":0.000622,"INCLINATION":51.6336,"RA_OF_ASC_NODE":322.8401,"ARG_OF_PERICENTER":256.5772,"MEAN_ANOMALY":103.4524,"EPHEMERIS_TYPE":0,"CLASSIFICATION_TYPE":"U","NORAD_CAT_ID":67796,"ELEMENT_SET_NO":999,"REV_AT_EPOCH":55972,"BSTAR":0.00020301,"MEAN_MOTION_DOT":0.00010633,"MEAN_MOTION_DDOT":0},{"OBJECT_NAME":"PROGRESS-MS 33","OBJECT_ID":"2026-058A","EPOCH":"2026-03-31T20:13:47.748864","MEAN_MOTION":15.48686199,"ECCENTRICITY":0.000622,"INCLINATION":51.6336,"RA_OF_ASC_NODE":322.8401,"ARG_OF_PERICENTER":256.5772,"MEAN_ANOMALY":103.4524,"EPHEMERIS_TYPE":0,"CLASSIFICATION_TYPE":"U","NORAD_CAT_ID":68319,"ELEMENT_SET_NO":999,"REV_AT_EPOCH":123,"BSTAR":0.00020301,"MEAN_MOTION_DOT":0.00010633,"MEAN_MOTION_DDOT":0}]
